{"type": "FeatureCollection", "features": [ {"type": "Feature", "properties": {"norad_id": 35435, "name": "COSMOS 2251 DEB", "group": "cosmos-2251-debris", "lat": 16.32754035447547, "lon": 129.12330273970008, "alt_km": 642.6797014097838, "timestamp": "2025-12-02T10:50:47.671840+00:00", "meta": {"OBJECT_NAME": "COSMOS 2251 DEB", "OBJECT_ID": "1993-036AKD", "EPOCH": "2025-12-01T04:42:29.570112", "MEAN_MOTION": 14.77856988, "ECCENTRICITY": 0.0009617, "INCLINATION": 74.0095, "RA_OF_ASC_NODE": 126.7727, "ARG_OF_PERICENTER": 217.2149, "MEAN_ANOMALY": 321.5063, "EPHEMERIS_TYPE": 0, "CLASSIFICATION_TYPE": "U", "NORAD_CAT_ID": 35435, "ELEMENT_SET_NO": 999, "REV_AT_EPOCH": 87368, "BSTAR": 0.0028899, "MEAN_MOTION_DOT": 0.00020833, "MEAN_MOTION_DDOT": 0}, "tle": {"line1": "1 35435U 93036AKD 25335.19617558  .00020833  00000+0  28899-2 0  9994", "line2": "2 35435  74.0095 126.7727 0009617 217.2149 321.5063 14.77856988873683"}}, "geometry": {"type": "Point", "coordinates": [129.12330273970008, 16.32754035447547]}}, {"type": "Feature", "properties": {"norad_id": 35439, "name": "COSMOS 2251 DEB", "group": "cosmos-2251-debris", "lat": -42.18692748427849, "lon": -12.58035474289963, "alt_km": 950.9523876660351, "timestamp": "2025-12-02T10:50:47.671850+00:00", "meta": {"OBJECT_NAME": "COSMOS 2251 DEB", "OBJECT_ID": "1993-036AKH", "EPOCH": "2025-12-01T18:18:43.778016", "MEAN_MOTION": 13.92733955, "ECCENTRICITY": 0.0241455, "INCLINATION": 74.0186, "RA_OF_ASC_NODE": 153.5455, "ARG_OF_PERICENTER": 325.3038, "MEAN_ANOMALY": 48.7811, "EPHEMERIS_TYPE": 0, "CLASSIFICATION_TYPE": "U", "NORAD_CAT_ID": 35439, "ELEMENT_SET_NO": 999, "REV_AT_EPOCH": 83808, "BSTAR": 0.0015035, "MEAN_MOTION_DOT": 2.446e-05, "MEAN_MOTION_DDOT": 0}, "tle": {"line1": "1 35439U 93036AKH 25335.76300669  .00002446  00000+0  15035-2 0  9991", "line2": "2 35439  74.0186 153.5455 0241455 325.3038  48.7811 13.92733955838088"}}, "geometry": {"type": "Point", "coordinates": [-12.58035474289963, -42.18692748427849]}}, {"type": "Feature", "properties": {"norad_id": 35440, "name": "COSMOS 2251 DEB", "group": "cosmos-2251-debris", "lat": 5.509570213832854, "lon": -130.8561148928543, "alt_km": 618.717835386471, "timestamp": "2025-12-02T10:50:47.671860+00:00", "meta": {"OBJECT_NAME": "COSMOS 2251 DEB", "OBJECT_ID": "1993-036AKJ", "EPOCH": "2025-12-01T23:22:39.601344", "MEAN_MOTION": 14.68713507, "ECCENTRICITY": 0.0068898, "INCLINATION": 74.0163, "RA_OF_ASC_NODE": 228.485, "ARG_OF_PERICENTER": 11.896, "MEAN_ANOMALY": 348.3817, "EPHEMERIS_TYPE": 0, "CLASSIFICATION_TYPE": "U", "NORAD_CAT_ID": 35440, "ELEMENT_SET_NO": 999, "REV_AT_EPOCH": 68607, "BSTAR": 0.00062281, "MEAN_MOTION_DOT": 3.729e-05, "MEAN_MOTION_DDOT": 0}, "tle": {"line1": "1 35440U 93036AKJ 25335.97406946  .00003729  00000+0  62281-3 0  9992", "line2": "2 35440  74.0163 228.4850 0068898  11.8960 348.3817 14.68713507686075"}}, "geometry": {"type": "Point", "coordinates": [-130.8561148928543, 5.509570213832854]}}, {"type": "Feature", "properties": {"norad_id": 35441, "name": "COSMOS 2251 DEB", "group": "cosmos-2251-debris", "lat": -12.58533843648055, "lon": 141.33726325674502, "alt_km": 665.5571767444917, "timestamp": "2025-12-02T10:50:47.671872+00:00", "meta": {"OBJECT_NAME": "COSMOS 2251 DEB", "OBJECT_ID": "1993-036AKK", "EPOCH": "2025-11-27T10:05:58.414272", "MEAN_MOTION": 14.62209655, "ECCENTRICITY": 0.00380271, "INCLINATION": 74.1356, "RA_OF_ASC_NODE": 327.2695, "ARG_OF_PERICENTER": 228.9234, "MEAN_ANOMALY": 130.8647, "EPHEMERIS_TYPE": 0, "CLASSIFICATION_TYPE": "U", "NORAD_CAT_ID": 35441, "ELEMENT_SET_NO": 999, "REV_AT_EPOCH": 87206, "BSTAR": 0.0016040934, "MEAN_MOTION_DOT": 8.144e-05, "MEAN_MOTION_DDOT": 0}, "tle": {"line1": "1 35441U 93036AKK 25331.42081498  .00008144  00000+0  16041-2 0  9998", "line2": "2 35441  74.1356 327.2695 0038027 228.9234 130.8647 14.62209655872061"}}, "geometry": {"type": "Point", "coordinates": [141.33726325674502, -12.58533843648055]}}, {"type": "Feature", "properties": {"norad_id": 35442, "name": "COSMOS 2251 DEB", "group": "cosmos-2251-debris", "lat": -5.137024173153528, "lon": 118.06727449229304, "alt_km": 623.4528656510911, "timestamp": "2025-12-02T10:50:47.671882+00:00", "meta": {"OBJECT_NAME": "COSMOS 2251 DEB", "OBJECT_ID": "1993-036AKL", "EPOCH": "2025-12-02T02:46:45.175296", "MEAN_MOTION": 14.8366998, "ECCENTRICITY": 0.0004637, "INCLINATION": 74.0255, "RA_OF_ASC_NODE": 120.209, "ARG_OF_PERICENTER": 134.2231, "MEAN_ANOMALY": 225.9329, "EPHEMERIS_TYPE": 0, "CLASSIFICATION_TYPE": "U", "NORAD_CAT_ID": 35442, "ELEMENT_SET_NO": 999, "REV_AT_EPOCH": 87195, "BSTAR": 0.0035194, "MEAN_MOTION_DOT": 0.0002917, "MEAN_MOTION_DDOT": 0}, "tle": {"line1": "1 35442U 93036AKL 25336.11580064  .00029170  00000+0  35194-2 0  9995", "line2": "2 35442  74.0255 120.2090 0004637 134.2231 225.9329 14.83669980871959"}}, "geometry": {"type": "Point", "coordinates": [118.06727449229304, -5.137024173153528]}}, {"type": "Feature", "properties": {"norad_id": 35443, "name": "COSMOS 2251 DEB", "group": "cosmos-2251-debris", "lat": -51.91468009009496, "lon": -29.055661174143236, "alt_km": 638.1048190958754, "timestamp": "2025-12-02T10:50:47.671893+00:00", "meta": {"OBJECT_NAME": "COSMOS 2251 DEB", "OBJECT_ID": "1993-036AKM", "EPOCH": "2025-12-01T19:02:20.168736", "MEAN_MOTION": 14.95343582, "ECCENTRICITY": 0.0074144, "INCLINATION": 73.9873, "RA_OF_ASC_NODE": 353.7736, "ARG_OF_PERICENTER": 139.118, "MEAN_ANOMALY": 221.5599, "EPHEMERIS_TYPE": 0, "CLASSIFICATION_TYPE": "U", "NORAD_CAT_ID": 35443, "ELEMENT_SET_NO": 999, "REV_AT_EPOCH": 86714, "BSTAR": 0.0031171, "MEAN_MOTION_DOT": 0.00036482, "MEAN_MOTION_DDOT": 0}, "tle": {"line1": "1 35443U 93036AKM 25335.79328899  .00036482  00000+0  31171-2 0  9990", "line2": "2 35443  73.9873 353.7736 0074144 139.1180 221.5599 14.95343582867148"}}, "geometry": {"type": "Point", "coordinates": [-29.055661174143236, -51.91468009009496]}}, {"type": "Feature", "properties": {"norad_id": 35445, "name": "COSMOS 2251 DEB", "group": "cosmos-2251-debris", "lat": -74.02426547238919, "lon": -129.7204403326795, "alt_km": 779.9550632877854, "timestamp": "2025-12-02T10:50:47.671904+00:00", "meta": {"OBJECT_NAME": "COSMOS 2251 DEB", "OBJECT_ID": "1993-036AKP", "EPOCH": "2025-12-01T05:37:58.814400", "MEAN_MOTION": 14.58784895, "ECCENTRICITY": 0.0143608, "INCLINATION": 74.0353, "RA_OF_ASC_NODE": 321.9314, "ARG_OF_PERICENTER": 51.7494, "MEAN_ANOMALY": 309.6492, "EPHEMERIS_TYPE": 0, "CLASSIFICATION_TYPE": "U", "NORAD_CAT_ID": 35445, "ELEMENT_SET_NO": 999, "REV_AT_EPOCH": 87161, "BSTAR": 0.0018521, "MEAN_MOTION_DOT": 9.974e-05, "MEAN_MOTION_DDOT": 0}, "tle": {"line1": "1 35445U 93036AKP 25335.23470850  .00009974  00000+0  18521-2 0  9996", "line2": "2 35445  74.0353 321.9314 0143608  51.7494 309.6492 14.58784895871615"}}, "geometry": {"type": "Point", "coordinates": [-129.7204403326795, -74.02426547238919]}}, {"type": "Feature", "properties": {"norad_id": 35446, "name": "COSMOS 2251 DEB", "group": "cosmos-2251-debris", "lat": 65.45469217481953, "lon": 118.85284913400548, "alt_km": 651.8982137226158, "timestamp": "2025-12-02T10:50:47.671914+00:00", "meta": {"OBJECT_NAME": "COSMOS 2251 DEB", "OBJECT_ID": "1993-036AKQ", "EPOCH": "2025-11-30T07:11:01.736160", "MEAN_MOTION": 14.5460995, "ECCENTRICITY": 0.00744354, "INCLINATION": 74.0466, "RA_OF_ASC_NODE": 341.7043, "ARG_OF_PERICENTER": 103.5149, "MEAN_ANOMALY": 257.4321, "EPHEMERIS_TYPE": 0, "CLASSIFICATION_TYPE": "U", "NORAD_CAT_ID": 35446, "ELEMENT_SET_NO": 999, "REV_AT_EPOCH": 87827, "BSTAR": 0.00010353473, "MEAN_MOTION_DOT": 4.29e-06, "MEAN_MOTION_DDOT": 0}, "tle": {"line1": "1 35446U 93036AKQ 25334.29932565  .00000429  00000+0  10353-3 0  9990", "line2": "2 35446  74.0466 341.7043 0074435 103.5149 257.4321 14.54609950878278"}}, "geometry": {"type": "Point", "coordinates": [118.85284913400548, 65.45469217481953]}}, {"type": "Feature", "properties": {"norad_id": 35448, "name": "COSMOS 2251 DEB", "group": "cosmos-2251-debris", "lat": -16.030669551827785, "lon": 104.35684493187854, "alt_km": 712.3550131205184, "timestamp": "2025-12-02T10:50:47.671925+00:00", "meta": {"OBJECT_NAME": "COSMOS 2251 DEB", "OBJECT_ID": "1993-036AKS", "EPOCH": "2025-11-30T02:46:57.396576", "MEAN_MOTION": 14.54072836, "ECCENTRICITY": 0.00108374, "INCLINATION": 73.9021, "RA_OF_ASC_NODE": 113.5661, "ARG_OF_PERICENTER": 293.2846, "MEAN_ANOMALY": 66.7175, "EPHEMERIS_TYPE": 0, "CLASSIFICATION_TYPE": "U", "NORAD_CAT_ID": 35448, "ELEMENT_SET_NO": 999, "REV_AT_EPOCH": 87151, "BSTAR": 0.0011243379, "MEAN_MOTION_DOT": 4.725e-05, "MEAN_MOTION_DDOT": 0}, "tle": {"line1": "1 35448U 93036AKS 25334.11594209  .00004725  00000+0  11243-2 0  9993", "line2": "2 35448  73.9021 113.5661 0010837 293.2846  66.7175 14.54072836871518"}}, "geometry": {"type": "Point", "coordinates": [104.35684493187854, -16.030669551827785]}}, {"type": "Feature", "properties": {"norad_id": 35451, "name": "COSMOS 2251 DEB", "group": "cosmos-2251-debris", "lat": -71.90263182117701, "lon": 6.756548217865559, "alt_km": 480.7272301367693, "timestamp": "2025-12-02T10:50:47.671935+00:00", "meta": {"OBJECT_NAME": "COSMOS 2251 DEB", "OBJECT_ID": "1993-036AKV", "EPOCH": "2025-12-01T10:13:47.469504", "MEAN_MOTION": 15.33908779, "ECCENTRICITY": 0.00396196, "INCLINATION": 73.9311, "RA_OF_ASC_NODE": 127.0764, "ARG_OF_PERICENTER": 15.9869, "MEAN_ANOMALY": 344.2575, "EPHEMERIS_TYPE": 0, "CLASSIFICATION_TYPE": "U", "NORAD_CAT_ID": 35451, "ELEMENT_SET_NO": 999, "REV_AT_EPOCH": 67232, "BSTAR": 0.0018622574, "MEAN_MOTION_DOT": 0.00063135, "MEAN_MOTION_DDOT": 0}, "tle": {"line1": "1 35451U 93036AKV 25335.42624386  .00063135  00000+0  18623-2 0  9991", "line2": "2 35451  73.9311 127.0764 0039619  15.9869 344.2575 15.33908779672329"}}, "geometry": {"type": "Point", "coordinates": [6.756548217865559, -71.90263182117701]}}]}